<?xml version="1.0" encoding="UTF-8"?>
<!-- track-length = 25558 filtered ascend = 725 plain-ascend = 142 cost=46724 energy=0.2kwh time=2h 14m 11s -->
<gpx 
 xmlns="http://www.topografix.com/GPX/1/1" 
 xmlns:xsi="http://www.w3.org/2001/XMLSchema-instance" 
 xsi:schemaLocation="http://www.topografix.com/GPX/1/1 http://www.topografix.com/GPX/1/1/gpx.xsd" 
 version="1.1" 
 creator="BRouter-Web 0.18.1">
 <trk>
  <name>Durch karge und einsame Berglandschaften  - Šavnik - Semolj-Pass 25,6km</name>
  <trkseg>
   <trkpt lat="42.88279" lon="19.093664"><ele>1426</ele></trkpt>
   <trkpt lat="42.882822" lon="19.093679"><ele>1426.25</ele></trkpt>
   <trkpt lat="42.882848" lon="19.093882"><ele>1425.25</ele></trkpt>
   <trkpt lat="42.882849" lon="19.094112"><ele>1423.5</ele></trkpt>
   <trkpt lat="42.882806" lon="19.094376"><ele>1423.75</ele></trkpt>
   <trkpt lat="42.882738" lon="19.094604"><ele>1424.75</ele></trkpt>
   <trkpt lat="42.882707" lon="19.094796"><ele>1425.75</ele></trkpt>
   <trkpt lat="42.882718" lon="19.094996"><ele>1426.5</ele></trkpt>
   <trkpt lat="42.882902" lon="19.095474"><ele>1428.75</ele></trkpt>
   <trkpt lat="42.882935" lon="19.095611"><ele>1429.25</ele></trkpt>
   <trkpt lat="42.88295" lon="19.095783"><ele>1430</ele></trkpt>
   <trkpt lat="42.882953" lon="19.096339"><ele>1431.25</ele></trkpt>
   <trkpt lat="42.883001" lon="19.096621"><ele>1431.5</ele></trkpt>
   <trkpt lat="42.883107" lon="19.096886"><ele>1432.75</ele></trkpt>
   <trkpt lat="42.88329" lon="19.097194"><ele>1433.25</ele></trkpt>
   <trkpt lat="42.883513" lon="19.097438"><ele>1433.75</ele></trkpt>
   <trkpt lat="42.883793" lon="19.097666"><ele>1434.5</ele></trkpt>
   <trkpt lat="42.884249" lon="19.098144"><ele>1436</ele></trkpt>
   <trkpt lat="42.884785" lon="19.098651"><ele>1438.75</ele></trkpt>
   <trkpt lat="42.885614" lon="19.099348"><ele>1442.5</ele></trkpt>
   <trkpt lat="42.88577" lon="19.099533"><ele>1444</ele></trkpt>
   <trkpt lat="42.885956" lon="19.09985"><ele>1447.25</ele></trkpt>
   <trkpt lat="42.886051" lon="19.099984"><ele>1448.5</ele></trkpt>
   <trkpt lat="42.886175" lon="19.100083"><ele>1449.25</ele></trkpt>
   <trkpt lat="42.886353" lon="19.100209"><ele>1450.25</ele></trkpt>
   <trkpt lat="42.886452" lon="19.10034"><ele>1451.5</ele></trkpt>
   <trkpt lat="42.886517" lon="19.100499"><ele>1452.75</ele></trkpt>
   <trkpt lat="42.886678" lon="19.101035"><ele>1456.75</ele></trkpt>
   <trkpt lat="42.88676" lon="19.101475"><ele>1458.75</ele></trkpt>
   <trkpt lat="42.886828" lon="19.101762"><ele>1460</ele></trkpt>
   <trkpt lat="42.88689" lon="19.101944"><ele>1461</ele></trkpt>
   <trkpt lat="42.886923" lon="19.102116"><ele>1461.75</ele></trkpt>
   <trkpt lat="42.886906" lon="19.102255"><ele>1462.5</ele></trkpt>
   <trkpt lat="42.886809" lon="19.102567"><ele>1463.5</ele></trkpt>
   <trkpt lat="42.886609" lon="19.103071"><ele>1463.75</ele></trkpt>
   <trkpt lat="42.886548" lon="19.10324"><ele>1464.25</ele></trkpt>
   <trkpt lat="42.886432" lon="19.103411"><ele>1465</ele></trkpt>
   <trkpt lat="42.886208" lon="19.103666"><ele>1465.75</ele></trkpt>
   <trkpt lat="42.88609" lon="19.10383"><ele>1466.25</ele></trkpt>
   <trkpt lat="42.885976" lon="19.104047"><ele>1466.5</ele></trkpt>
   <trkpt lat="42.88584" lon="19.104667"><ele>1470.5</ele></trkpt>
   <trkpt lat="42.88577" lon="19.10527"><ele>1474.5</ele></trkpt>
   <trkpt lat="42.88576" lon="19.105777"><ele>1477.25</ele></trkpt>
   <trkpt lat="42.88578" lon="19.106142"><ele>1478</ele></trkpt>
   <trkpt lat="42.885752" lon="19.106381"><ele>1478.75</ele></trkpt>
   <trkpt lat="42.885697" lon="19.106595"><ele>1479.75</ele></trkpt>
   <trkpt lat="42.885477" lon="19.106904"><ele>1481</ele></trkpt>
   <trkpt lat="42.885204" lon="19.107167"><ele>1481.25</ele></trkpt>
   <trkpt lat="42.885072" lon="19.107255"><ele>1481.25</ele></trkpt>
   <trkpt lat="42.885009" lon="19.107322"><ele>1481</ele></trkpt>
   <trkpt lat="42.884982" lon="19.107397"><ele>1480.75</ele></trkpt>
   <trkpt lat="42.884946" lon="19.107609"><ele>1480.75</ele></trkpt>
   <trkpt lat="42.884893" lon="19.108178"><ele>1482.25</ele></trkpt>
   <trkpt lat="42.884819" lon="19.108556"><ele>1483.75</ele></trkpt>
   <trkpt lat="42.884738" lon="19.10884"><ele>1484.75</ele></trkpt>
   <trkpt lat="42.88463" lon="19.109079"><ele>1485.75</ele></trkpt>
   <trkpt lat="42.884455" lon="19.109355"><ele>1486</ele></trkpt>
   <trkpt lat="42.88433" lon="19.109645"><ele>1486.25</ele></trkpt>
   <trkpt lat="42.88427" lon="19.109897"><ele>1486.25</ele></trkpt>
   <trkpt lat="42.884267" lon="19.110138"><ele>1485.75</ele></trkpt>
   <trkpt lat="42.884355" lon="19.110399"><ele>1484.5</ele></trkpt>
   <trkpt lat="42.884406" lon="19.11057"><ele>1483.5</ele></trkpt>
   <trkpt lat="42.884435" lon="19.111254"><ele>1482.75</ele></trkpt>
   <trkpt lat="42.884406" lon="19.111445"><ele>1483</ele></trkpt>
   <trkpt lat="42.884319" lon="19.111737"><ele>1483.25</ele></trkpt>
   <trkpt lat="42.884062" lon="19.112665"><ele>1483.75</ele></trkpt>
   <trkpt lat="42.883865" lon="19.113239"><ele>1484.5</ele></trkpt>
   <trkpt lat="42.883734" lon="19.113499"><ele>1485.25</ele></trkpt>
   <trkpt lat="42.883645" lon="19.113649"><ele>1486</ele></trkpt>
   <trkpt lat="42.883541" lon="19.114041"><ele>1487.5</ele></trkpt>
   <trkpt lat="42.883443" lon="19.114505"><ele>1488</ele></trkpt>
   <trkpt lat="42.883309" lon="19.114888"><ele>1488.25</ele></trkpt>
   <trkpt lat="42.883181" lon="19.115256"><ele>1488.25</ele></trkpt>
   <trkpt lat="42.883105" lon="19.115624"><ele>1488.5</ele></trkpt>
   <trkpt lat="42.882981" lon="19.116632"><ele>1488.25</ele></trkpt>
   <trkpt lat="42.882995" lon="19.117115"><ele>1488.75</ele></trkpt>
   <trkpt lat="42.882965" lon="19.117574"><ele>1489.75</ele></trkpt>
   <trkpt lat="42.882847" lon="19.118351"><ele>1490.25</ele></trkpt>
   <trkpt lat="42.882726" lon="19.118778"><ele>1492.25</ele></trkpt>
   <trkpt lat="42.882575" lon="19.11919"><ele>1493.75</ele></trkpt>
   <trkpt lat="42.882396" lon="19.119518"><ele>1494.25</ele></trkpt>
   <trkpt lat="42.882057" lon="19.120079"><ele>1495.25</ele></trkpt>
   <trkpt lat="42.881802" lon="19.120387"><ele>1496.75</ele></trkpt>
   <trkpt lat="42.88152" lon="19.120775"><ele>1498.75</ele></trkpt>
   <trkpt lat="42.881025" lon="19.121634"><ele>1501</ele></trkpt>
   <trkpt lat="42.880457" lon="19.122543"><ele>1503.5</ele></trkpt>
   <trkpt lat="42.880128" lon="19.123208"><ele>1507</ele></trkpt>
   <trkpt lat="42.879747" lon="19.123817"><ele>1509.25</ele></trkpt>
   <trkpt lat="42.879279" lon="19.124587"><ele>1512.5</ele></trkpt>
   <trkpt lat="42.878947" lon="19.125273"><ele>1517</ele></trkpt>
   <trkpt lat="42.87865" lon="19.125871"><ele>1518.75</ele></trkpt>
   <trkpt lat="42.878353" lon="19.126621"><ele>1521.75</ele></trkpt>
   <trkpt lat="42.878211" lon="19.127003"><ele>1524.5</ele></trkpt>
   <trkpt lat="42.878135" lon="19.127335"><ele>1526.5</ele></trkpt>
   <trkpt lat="42.878051" lon="19.127797"><ele>1528.5</ele></trkpt>
   <trkpt lat="42.877894" lon="19.128372"><ele>1530</ele></trkpt>
   <trkpt lat="42.877831" lon="19.128683"><ele>1530.5</ele></trkpt>
   <trkpt lat="42.877755" lon="19.129266"><ele>1531.5</ele></trkpt>
   <trkpt lat="42.877597" lon="19.129985"><ele>1535</ele></trkpt>
   <trkpt lat="42.877536" lon="19.130679"><ele>1535</ele></trkpt>
   <trkpt lat="42.877458" lon="19.13133"><ele>1534.75</ele></trkpt>
   <trkpt lat="42.877117" lon="19.13337"><ele>1538.5</ele></trkpt>
   <trkpt lat="42.877006" lon="19.133786"><ele>1538.75</ele></trkpt>
   <trkpt lat="42.876909" lon="19.13425"><ele>1538.25</ele></trkpt>
   <trkpt lat="42.876816" lon="19.134796"><ele>1539.25</ele></trkpt>
   <trkpt lat="42.876739" lon="19.135163"><ele>1540.25</ele></trkpt>
   <trkpt lat="42.876417" lon="19.13619"><ele>1545.75</ele></trkpt>
   <trkpt lat="42.876293" lon="19.136692"><ele>1546.75</ele></trkpt>
   <trkpt lat="42.876083" lon="19.13726"><ele>1547</ele></trkpt>
   <trkpt lat="42.875944" lon="19.137469"><ele>1546.75</ele></trkpt>
   <trkpt lat="42.875788" lon="19.137684"><ele>1547</ele></trkpt>
   <trkpt lat="42.875685" lon="19.137828"><ele>1547</ele></trkpt>
   <trkpt lat="42.875433" lon="19.138155"><ele>1546.25</ele></trkpt>
   <trkpt lat="42.875368" lon="19.138264"><ele>1545.5</ele></trkpt>
   <trkpt lat="42.875206" lon="19.138672"><ele>1544</ele></trkpt>
   <trkpt lat="42.875154" lon="19.138761"><ele>1543.5</ele></trkpt>
   <trkpt lat="42.875042" lon="19.138878"><ele>1542.75</ele></trkpt>
   <trkpt lat="42.874903" lon="19.138984"><ele>1543</ele></trkpt>
   <trkpt lat="42.874645" lon="19.139122"><ele>1544.25</ele></trkpt>
   <trkpt lat="42.874445" lon="19.139274"><ele>1545.25</ele></trkpt>
   <trkpt lat="42.874291" lon="19.139415"><ele>1546.5</ele></trkpt>
   <trkpt lat="42.874106" lon="19.139656"><ele>1548.25</ele></trkpt>
   <trkpt lat="42.873839" lon="19.140086"><ele>1549.75</ele></trkpt>
   <trkpt lat="42.873415" lon="19.140866"><ele>1547.75</ele></trkpt>
   <trkpt lat="42.873061" lon="19.141612"><ele>1550.5</ele></trkpt>
   <trkpt lat="42.872916" lon="19.141888"><ele>1553</ele></trkpt>
   <trkpt lat="42.872721" lon="19.142218"><ele>1556.5</ele></trkpt>
   <trkpt lat="42.872376" lon="19.142588"><ele>1562</ele></trkpt>
   <trkpt lat="42.872275" lon="19.142634"><ele>1563.25</ele></trkpt>
   <trkpt lat="42.87213" lon="19.142657"><ele>1564.5</ele></trkpt>
   <trkpt lat="42.87188" lon="19.142639"><ele>1566</ele></trkpt>
   <trkpt lat="42.871794" lon="19.142648"><ele>1566.5</ele></trkpt>
   <trkpt lat="42.871686" lon="19.142711"><ele>1567.5</ele></trkpt>
   <trkpt lat="42.871623" lon="19.142835"><ele>1569.25</ele></trkpt>
   <trkpt lat="42.87155" lon="19.143328"><ele>1572</ele></trkpt>
   <trkpt lat="42.871474" lon="19.143612"><ele>1576.25</ele></trkpt>
   <trkpt lat="42.871035" lon="19.145029"><ele>1584.25</ele></trkpt>
   <trkpt lat="42.871018" lon="19.145173"><ele>1584.5</ele></trkpt>
   <trkpt lat="42.871024" lon="19.14529"><ele>1585</ele></trkpt>
   <trkpt lat="42.871045" lon="19.145402"><ele>1585.25</ele></trkpt>
   <trkpt lat="42.871194" lon="19.145704"><ele>1586.75</ele></trkpt>
   <trkpt lat="42.871274" lon="19.145907"><ele>1587.75</ele></trkpt>
   <trkpt lat="42.871354" lon="19.146197"><ele>1589.25</ele></trkpt>
   <trkpt lat="42.871417" lon="19.146366"><ele>1590</ele></trkpt>
   <trkpt lat="42.871606" lon="19.14665"><ele>1591</ele></trkpt>
   <trkpt lat="42.871762" lon="19.146966"><ele>1593.25</ele></trkpt>
   <trkpt lat="42.872052" lon="19.147488"><ele>1596</ele></trkpt>
   <trkpt lat="42.872124" lon="19.147577"><ele>1596.75</ele></trkpt>
   <trkpt lat="42.872214" lon="19.147663"><ele>1597.5</ele></trkpt>
   <trkpt lat="42.872426" lon="19.147801"><ele>1598.25</ele></trkpt>
   <trkpt lat="42.872479" lon="19.147852"><ele>1598.5</ele></trkpt>
   <trkpt lat="42.872508" lon="19.14791"><ele>1599.25</ele></trkpt>
   <trkpt lat="42.872511" lon="19.14801"><ele>1600.5</ele></trkpt>
   <trkpt lat="42.872462" lon="19.148401"><ele>1607.25</ele></trkpt>
   <trkpt lat="42.872426" lon="19.148696"><ele>1607.25</ele></trkpt>
   <trkpt lat="42.872382" lon="19.148969"><ele>1609</ele></trkpt>
   <trkpt lat="42.872328" lon="19.149149"><ele>1610.25</ele></trkpt>
   <trkpt lat="42.872214" lon="19.149356"><ele>1611.75</ele></trkpt>
   <trkpt lat="42.872088" lon="19.149508"><ele>1612.5</ele></trkpt>
   <trkpt lat="42.871899" lon="19.149628"><ele>1612.75</ele></trkpt>
   <trkpt lat="42.871606" lon="19.149769"><ele>1613</ele></trkpt>
   <trkpt lat="42.871201" lon="19.149964"><ele>1614.75</ele></trkpt>
   <trkpt lat="42.870002" lon="19.150676"><ele>1621.75</ele></trkpt>
   <trkpt lat="42.869472" lon="19.151017"><ele>1621.25</ele></trkpt>
   <trkpt lat="42.869331" lon="19.151094"><ele>1621</ele></trkpt>
   <trkpt lat="42.868955" lon="19.151238"><ele>1621.25</ele></trkpt>
   <trkpt lat="42.868829" lon="19.151327"><ele>1621</ele></trkpt>
   <trkpt lat="42.868747" lon="19.151404"><ele>1620.75</ele></trkpt>
   <trkpt lat="42.868587" lon="19.151668"><ele>1619.5</ele></trkpt>
   <trkpt lat="42.868387" lon="19.152044"><ele>1616</ele></trkpt>
   <trkpt lat="42.868257" lon="19.152213"><ele>1614.75</ele></trkpt>
   <trkpt lat="42.868007" lon="19.152465"><ele>1613.75</ele></trkpt>
   <trkpt lat="42.867946" lon="19.15257"><ele>1613</ele></trkpt>
   <trkpt lat="42.867888" lon="19.152682"><ele>1611.75</ele></trkpt>
   <trkpt lat="42.867839" lon="19.152846"><ele>1610</ele></trkpt>
   <trkpt lat="42.867723" lon="19.153183"><ele>1606.25</ele></trkpt>
   <trkpt lat="42.867531" lon="19.153571"><ele>1604</ele></trkpt>
   <trkpt lat="42.867513" lon="19.153631"><ele>1603.75</ele></trkpt>
   <trkpt lat="42.867501" lon="19.153727"><ele>1603.5</ele></trkpt>
   <trkpt lat="42.867515" lon="19.154088"><ele>1602</ele></trkpt>
   <trkpt lat="42.8675" lon="19.154183"><ele>1602</ele></trkpt>
   <trkpt lat="42.867418" lon="19.154437"><ele>1603.25</ele></trkpt>
   <trkpt lat="42.867414" lon="19.154516"><ele>1603.5</ele></trkpt>
   <trkpt lat="42.867421" lon="19.154914"><ele>1604</ele></trkpt>
   <trkpt lat="42.867397" lon="19.155196"><ele>1603</ele></trkpt>
   <trkpt lat="42.867396" lon="19.155305"><ele>1602.25</ele></trkpt>
   <trkpt lat="42.867442" lon="19.155766"><ele>1599.25</ele></trkpt>
   <trkpt lat="42.867445" lon="19.155867"><ele>1598</ele></trkpt>
   <trkpt lat="42.867429" lon="19.155934"><ele>1596.75</ele></trkpt>
   <trkpt lat="42.867406" lon="19.155987"><ele>1595.75</ele></trkpt>
   <trkpt lat="42.86736" lon="19.156023"><ele>1594.75</ele></trkpt>
   <trkpt lat="42.867302" lon="19.156035"><ele>1594.25</ele></trkpt>
   <trkpt lat="42.867124" lon="19.156023"><ele>1594</ele></trkpt>
   <trkpt lat="42.867035" lon="19.155999"><ele>1594.25</ele></trkpt>
   <trkpt lat="42.866786" lon="19.155867"><ele>1596.5</ele></trkpt>
   <trkpt lat="42.866725" lon="19.155857"><ele>1596.5</ele></trkpt>
   <trkpt lat="42.86666" lon="19.155867"><ele>1596</ele></trkpt>
   <trkpt lat="42.866592" lon="19.155902"><ele>1595.25</ele></trkpt>
   <trkpt lat="42.866331" lon="19.15623"><ele>1588.25</ele></trkpt>
   <trkpt lat="42.866281" lon="19.156289"><ele>1587</ele></trkpt>
   <trkpt lat="42.866205" lon="19.156326"><ele>1586.5</ele></trkpt>
   <trkpt lat="42.866147" lon="19.156338"><ele>1586.25</ele></trkpt>
   <trkpt lat="42.865888" lon="19.156354"><ele>1586.5</ele></trkpt>
   <trkpt lat="42.865841" lon="19.156406"><ele>1585.5</ele></trkpt>
   <trkpt lat="42.865737" lon="19.156398"><ele>1587</ele></trkpt>
   <trkpt lat="42.865841" lon="19.156406"><ele>1585.5</ele></trkpt>
   <trkpt lat="42.865879" lon="19.156463"><ele>1584.5</ele></trkpt>
   <trkpt lat="42.866022" lon="19.15658"><ele>1581.75</ele></trkpt>
   <trkpt lat="42.866229" lon="19.1567"><ele>1579</ele></trkpt>
   <trkpt lat="42.866374" lon="19.156842"><ele>1576</ele></trkpt>
   <trkpt lat="42.866487" lon="19.157002"><ele>1572</ele></trkpt>
   <trkpt lat="42.866577" lon="19.157082"><ele>1569.25</ele></trkpt>
   <trkpt lat="42.866685" lon="19.157112"><ele>1567.25</ele></trkpt>
   <trkpt lat="42.866785" lon="19.157094"><ele>1568.25</ele></trkpt>
   <trkpt lat="42.866893" lon="19.157061"><ele>1569.5</ele></trkpt>
   <trkpt lat="42.866941" lon="19.15709"><ele>1569</ele></trkpt>
   <trkpt lat="42.866956" lon="19.157122"><ele>1568.25</ele></trkpt>
   <trkpt lat="42.866936" lon="19.157185"><ele>1566.75</ele></trkpt>
   <trkpt lat="42.866861" lon="19.157232"><ele>1565.25</ele></trkpt>
   <trkpt lat="42.866751" lon="19.15728"><ele>1563.5</ele></trkpt>
   <trkpt lat="42.866702" lon="19.157323"><ele>1562.25</ele></trkpt>
   <trkpt lat="42.866673" lon="19.157396"><ele>1560.5</ele></trkpt>
   <trkpt lat="42.866727" lon="19.157453"><ele>1559.25</ele></trkpt>
   <trkpt lat="42.8668" lon="19.157439"><ele>1559.75</ele></trkpt>
   <trkpt lat="42.866901" lon="19.157388"><ele>1561.5</ele></trkpt>
   <trkpt lat="42.867021" lon="19.157355"><ele>1562.75</ele></trkpt>
   <trkpt lat="42.867154" lon="19.15738"><ele>1562.75</ele></trkpt>
   <trkpt lat="42.867278" lon="19.157445"><ele>1561.5</ele></trkpt>
   <trkpt lat="42.867405" lon="19.157558"><ele>1559.25</ele></trkpt>
   <trkpt lat="42.867485" lon="19.157656"><ele>1557</ele></trkpt>
   <trkpt lat="42.86761" lon="19.157844"><ele>1553.5</ele></trkpt>
   <trkpt lat="42.867661" lon="19.157966"><ele>1551</ele></trkpt>
   <trkpt lat="42.867658" lon="19.158029"><ele>1549.25</ele></trkpt>
   <trkpt lat="42.867637" lon="19.158084"><ele>1547.75</ele></trkpt>
   <trkpt lat="42.867589" lon="19.158106"><ele>1546.5</ele></trkpt>
   <trkpt lat="42.867335" lon="19.158143"><ele>1546.5</ele></trkpt>
   <trkpt lat="42.867255" lon="19.158181"><ele>1546.75</ele></trkpt>
   <trkpt lat="42.867079" lon="19.158272"><ele>1547.5</ele></trkpt>
   <trkpt lat="42.867039" lon="19.158311"><ele>1547.5</ele></trkpt>
   <trkpt lat="42.867034" lon="19.158329"><ele>1547</ele></trkpt>
   <trkpt lat="42.867023" lon="19.158384"><ele>1547</ele></trkpt>
   <trkpt lat="42.867047" lon="19.158483"><ele>1545.75</ele></trkpt>
   <trkpt lat="42.867073" lon="19.158532"><ele>1545</ele></trkpt>
   <trkpt lat="42.867188" lon="19.158585"><ele>1542.25</ele></trkpt>
   <trkpt lat="42.867408" lon="19.158654"><ele>1536.75</ele></trkpt>
   <trkpt lat="42.867452" lon="19.158696"><ele>1535.25</ele></trkpt>
   <trkpt lat="42.867478" lon="19.158739"><ele>1534</ele></trkpt>
   <trkpt lat="42.867482" lon="19.158794"><ele>1533</ele></trkpt>
   <trkpt lat="42.86747" lon="19.159027"><ele>1530</ele></trkpt>
   <trkpt lat="42.8675" lon="19.159126"><ele>1527.5</ele></trkpt>
   <trkpt lat="42.867552" lon="19.159185"><ele>1526.5</ele></trkpt>
   <trkpt lat="42.867649" lon="19.159222"><ele>1525.5</ele></trkpt>
   <trkpt lat="42.867887" lon="19.159291"><ele>1523</ele></trkpt>
   <trkpt lat="42.868044" lon="19.159315"><ele>1521</ele></trkpt>
   <trkpt lat="42.86827" lon="19.159417"><ele>1517.5</ele></trkpt>
   <trkpt lat="42.868352" lon="19.159447"><ele>1516.25</ele></trkpt>
   <trkpt lat="42.86858" lon="19.159585"><ele>1515.25</ele></trkpt>
   <trkpt lat="42.868816" lon="19.159688"><ele>1514</ele></trkpt>
   <trkpt lat="42.868899" lon="19.159735"><ele>1513</ele></trkpt>
   <trkpt lat="42.869152" lon="19.159964"><ele>1507.75</ele></trkpt>
   <trkpt lat="42.869259" lon="19.160048"><ele>1507</ele></trkpt>
   <trkpt lat="42.869481" lon="19.160161"><ele>1506.25</ele></trkpt>
   <trkpt lat="42.870093" lon="19.160277"><ele>1502.5</ele></trkpt>
   <trkpt lat="42.870205" lon="19.160265"><ele>1502</ele></trkpt>
   <trkpt lat="42.870312" lon="19.160234"><ele>1501.5</ele></trkpt>
   <trkpt lat="42.87066" lon="19.160248"><ele>1498.75</ele></trkpt>
   <trkpt lat="42.870825" lon="19.160242"><ele>1497.5</ele></trkpt>
   <trkpt lat="42.871636" lon="19.160088"><ele>1498.25</ele></trkpt>
   <trkpt lat="42.872149" lon="19.159918"><ele>1495.5</ele></trkpt>
   <trkpt lat="42.872311" lon="19.159857"><ele>1494.25</ele></trkpt>
   <trkpt lat="42.872424" lon="19.15979"><ele>1493.5</ele></trkpt>
   <trkpt lat="42.872592" lon="19.159636"><ele>1492.75</ele></trkpt>
   <trkpt lat="42.872762" lon="19.159502"><ele>1491.25</ele></trkpt>
   <trkpt lat="42.87288" lon="19.159439"><ele>1489.75</ele></trkpt>
   <trkpt lat="42.87288" lon="19.159442"><ele>1486.75</ele></trkpt>
   <trkpt lat="42.872975" lon="19.15987"><ele>1486.75</ele></trkpt>
   <trkpt lat="42.87329" lon="19.160943"><ele>1485</ele></trkpt>
   <trkpt lat="42.873416" lon="19.161586"><ele>1479.25</ele></trkpt>
   <trkpt lat="42.873431" lon="19.16208"><ele>1477</ele></trkpt>
   <trkpt lat="42.873495" lon="19.162228"><ele>1477</ele></trkpt>
   <trkpt lat="42.873527" lon="19.162302"><ele>1477</ele></trkpt>
   <trkpt lat="42.873934" lon="19.162273"><ele>1481.25</ele></trkpt>
   <trkpt lat="42.874391" lon="19.162295"><ele>1483.25</ele></trkpt>
   <trkpt lat="42.874564" lon="19.162552"><ele>1487.25</ele></trkpt>
   <trkpt lat="42.875224" lon="19.163217"><ele>1493</ele></trkpt>
   <trkpt lat="42.87554" lon="19.163697"><ele>1496.75</ele></trkpt>
   <trkpt lat="42.875539" lon="19.164033"><ele>1503.75</ele></trkpt>
   <trkpt lat="42.875596" lon="19.164088"><ele>1508.25</ele></trkpt>
   <trkpt lat="42.875839" lon="19.164319"><ele>1508.25</ele></trkpt>
   <trkpt lat="42.877174" lon="19.164355"><ele>1506</ele></trkpt>
   <trkpt lat="42.87774" lon="19.164526"><ele>1517</ele></trkpt>
   <trkpt lat="42.878589" lon="19.164591"><ele>1533.5</ele></trkpt>
   <trkpt lat="42.879391" lon="19.164784"><ele>1543.25</ele></trkpt>
   <trkpt lat="42.879847" lon="19.165041"><ele>1541.25</ele></trkpt>
   <trkpt lat="42.880067" lon="19.165406"><ele>1546.25</ele></trkpt>
   <trkpt lat="42.880256" lon="19.166071"><ele>1560.75</ele></trkpt>
   <trkpt lat="42.88054" lon="19.1664"><ele>1562.25</ele></trkpt>
   <trkpt lat="42.881185" lon="19.166873"><ele>1560</ele></trkpt>
   <trkpt lat="42.881529" lon="19.167401"><ele>1563</ele></trkpt>
   <trkpt lat="42.881567" lon="19.167563"><ele>1568</ele></trkpt>
   <trkpt lat="42.881702" lon="19.168131"><ele>1568</ele></trkpt>
   <trkpt lat="42.881687" lon="19.169075"><ele>1579</ele></trkpt>
   <trkpt lat="42.881421" lon="19.170563"><ele>1590.5</ele></trkpt>
   <trkpt lat="42.880996" lon="19.171035"><ele>1597.5</ele></trkpt>
   <trkpt lat="42.880603" lon="19.171765"><ele>1599.25</ele></trkpt>
   <trkpt lat="42.880383" lon="19.172366"><ele>1601.5</ele></trkpt>
   <trkpt lat="42.88021" lon="19.172816"><ele>1601.25</ele></trkpt>
   <trkpt lat="42.879816" lon="19.173302"><ele>1603.25</ele></trkpt>
   <trkpt lat="42.879789" lon="19.173589"><ele>1603</ele></trkpt>
   <trkpt lat="42.879786" lon="19.173632"><ele>1603</ele></trkpt>
   <trkpt lat="42.880084" lon="19.173932"><ele>1599</ele></trkpt>
   <trkpt lat="42.880493" lon="19.174147"><ele>1598.75</ele></trkpt>
   <trkpt lat="42.880823" lon="19.173911"><ele>1597</ele></trkpt>
   <trkpt lat="42.881152" lon="19.17401"><ele>1599.25</ele></trkpt>
   <trkpt lat="42.881515" lon="19.174061"><ele>1601.5</ele></trkpt>
   <trkpt lat="42.881797" lon="19.173667"><ele>1601.5</ele></trkpt>
   <trkpt lat="42.88227" lon="19.173203"><ele>1602</ele></trkpt>
   <trkpt lat="42.88257" lon="19.173203"><ele>1603</ele></trkpt>
   <trkpt lat="42.882584" lon="19.173203"><ele>1603</ele></trkpt>
   <trkpt lat="42.882647" lon="19.17361"><ele>1606.25</ele></trkpt>
   <trkpt lat="42.882789" lon="19.174168"><ele>1610.75</ele></trkpt>
   <trkpt lat="42.882599" lon="19.174697"><ele>1614.75</ele></trkpt>
   <trkpt lat="42.881577" lon="19.176349"><ele>1627.75</ele></trkpt>
   <trkpt lat="42.881404" lon="19.177079"><ele>1636.75</ele></trkpt>
   <trkpt lat="42.881248" lon="19.177666"><ele>1645.75</ele></trkpt>
   <trkpt lat="42.881219" lon="19.17767"><ele>1647.25</ele></trkpt>
   <trkpt lat="42.880901" lon="19.177723"><ele>1647.25</ele></trkpt>
   <trkpt lat="42.880619" lon="19.177709"><ele>1648</ele></trkpt>
   <trkpt lat="42.88035" lon="19.178023"><ele>1654.75</ele></trkpt>
   <trkpt lat="42.879959" lon="19.17891"><ele>1661.25</ele></trkpt>
   <trkpt lat="42.879624" lon="19.179252"><ele>1665.25</ele></trkpt>
   <trkpt lat="42.879518" lon="19.179361"><ele>1665.25</ele></trkpt>
   <trkpt lat="42.879328" lon="19.180255"><ele>1669.75</ele></trkpt>
   <trkpt lat="42.879281" lon="19.181091"><ele>1673.25</ele></trkpt>
   <trkpt lat="42.879157" lon="19.181378"><ele>1674.25</ele></trkpt>
   <trkpt lat="42.879124" lon="19.181778"><ele>1676.5</ele></trkpt>
   <trkpt lat="42.879297" lon="19.182594"><ele>1681.5</ele></trkpt>
   <trkpt lat="42.879125" lon="19.183288"><ele>1683.75</ele></trkpt>
   <trkpt lat="42.878591" lon="19.184597"><ele>1686</ele></trkpt>
   <trkpt lat="42.878275" lon="19.185512"><ele>1684.25</ele></trkpt>
   <trkpt lat="42.878275" lon="19.185622"><ele>1683.25</ele></trkpt>
   <trkpt lat="42.878275" lon="19.185855"><ele>1683.25</ele></trkpt>
   <trkpt lat="42.87851" lon="19.186198"><ele>1684.5</ele></trkpt>
   <trkpt lat="42.879077" lon="19.18667"><ele>1680.5</ele></trkpt>
   <trkpt lat="42.879375" lon="19.18725"><ele>1679.75</ele></trkpt>
   <trkpt lat="42.87925" lon="19.187722"><ele>1676</ele></trkpt>
   <trkpt lat="42.878605" lon="19.189331"><ele>1687.25</ele></trkpt>
   <trkpt lat="42.878072" lon="19.18994"><ele>1690.5</ele></trkpt>
   <trkpt lat="42.877268" lon="19.190619"><ele>1696.75</ele></trkpt>
   <trkpt lat="42.876639" lon="19.191305"><ele>1694.25</ele></trkpt>
   <trkpt lat="42.876185" lon="19.191871"><ele>1691.5</ele></trkpt>
   <trkpt lat="42.875593" lon="19.192952"><ele>1692.25</ele></trkpt>
   <trkpt lat="42.875446" lon="19.193223"><ele>1692.25</ele></trkpt>
   <trkpt lat="42.875068" lon="19.194038"><ele>1698.75</ele></trkpt>
   <trkpt lat="42.875004" lon="19.19461"><ele>1707</ele></trkpt>
   <trkpt lat="42.874895" lon="19.195089"><ele>1715</ele></trkpt>
   <trkpt lat="42.874532" lon="19.195275"><ele>1715.5</ele></trkpt>
   <trkpt lat="42.873606" lon="19.195561"><ele>1721.75</ele></trkpt>
   <trkpt lat="42.87268" lon="19.195809"><ele>1733.75</ele></trkpt>
   <trkpt lat="42.872702" lon="19.19584"><ele>1736.25</ele></trkpt>
   <trkpt lat="42.87293" lon="19.196162"><ele>1736.25</ele></trkpt>
   <trkpt lat="42.87304" lon="19.196398"><ele>1739</ele></trkpt>
   <trkpt lat="42.873118" lon="19.196785"><ele>1744.75</ele></trkpt>
   <trkpt lat="42.873873" lon="19.197364"><ele>1749.75</ele></trkpt>
   <trkpt lat="42.873988" lon="19.197587"><ele>1751.75</ele></trkpt>
   <trkpt lat="42.874013" lon="19.197635"><ele>1751.75</ele></trkpt>
   <trkpt lat="42.873229" lon="19.198694"><ele>1752.5</ele></trkpt>
   <trkpt lat="42.873108" lon="19.199273"><ele>1747</ele></trkpt>
   <trkpt lat="42.873101" lon="19.199309"><ele>1747</ele></trkpt>
   <trkpt lat="42.87329" lon="19.199652"><ele>1743.25</ele></trkpt>
   <trkpt lat="42.873589" lon="19.199845"><ele>1741.25</ele></trkpt>
   <trkpt lat="42.873872" lon="19.199824"><ele>1742</ele></trkpt>
   <trkpt lat="42.874123" lon="19.199996"><ele>1739</ele></trkpt>
   <trkpt lat="42.874548" lon="19.200232"><ele>1734.5</ele></trkpt>
   <trkpt lat="42.874864" lon="19.200647"><ele>1729.25</ele></trkpt>
   <trkpt lat="42.874972" lon="19.201262"><ele>1724.75</ele></trkpt>
   <trkpt lat="42.875224" lon="19.201755"><ele>1723.75</ele></trkpt>
   <trkpt lat="42.875397" lon="19.201884"><ele>1723.5</ele></trkpt>
   <trkpt lat="42.876419" lon="19.202077"><ele>1712</ele></trkpt>
   <trkpt lat="42.87719" lon="19.201991"><ele>1708</ele></trkpt>
   <trkpt lat="42.877536" lon="19.202356"><ele>1700.5</ele></trkpt>
   <trkpt lat="42.878212" lon="19.202313"><ele>1706.25</ele></trkpt>
   <trkpt lat="42.878605" lon="19.202528"><ele>1704.75</ele></trkpt>
   <trkpt lat="42.878889" lon="19.202555"><ele>1704.25</ele></trkpt>
   <trkpt lat="42.879045" lon="19.202571"><ele>1704.25</ele></trkpt>
   <trkpt lat="42.87958" lon="19.202249"><ele>1707.5</ele></trkpt>
   <trkpt lat="42.880114" lon="19.201755"><ele>1710.25</ele></trkpt>
   <trkpt lat="42.880523" lon="19.201219"><ele>1717</ele></trkpt>
   <trkpt lat="42.880979" lon="19.200725"><ele>1719.5</ele></trkpt>
   <trkpt lat="42.881404" lon="19.200532"><ele>1726.25</ele></trkpt>
   <trkpt lat="42.881687" lon="19.200618"><ele>1732</ele></trkpt>
   <trkpt lat="42.881954" lon="19.200682"><ele>1735.25</ele></trkpt>
   <trkpt lat="42.882207" lon="19.200261"><ele>1734</ele></trkpt>
   <trkpt lat="42.883385" lon="19.199953"><ele>1740.5</ele></trkpt>
   <trkpt lat="42.883746" lon="19.199717"><ele>1740.25</ele></trkpt>
   <trkpt lat="42.884204" lon="19.199016"><ele>1735</ele></trkpt>
   <trkpt lat="42.884534" lon="19.198587"><ele>1735.75</ele></trkpt>
   <trkpt lat="42.88488" lon="19.198351"><ele>1739.25</ele></trkpt>
   <trkpt lat="42.885193" lon="19.198472"><ele>1742.5</ele></trkpt>
   <trkpt lat="42.885586" lon="19.198901"><ele>1744</ele></trkpt>
   <trkpt lat="42.8859" lon="19.199137"><ele>1744</ele></trkpt>
   <trkpt lat="42.886136" lon="19.199288"><ele>1748.5</ele></trkpt>
   <trkpt lat="42.886356" lon="19.199116"><ele>1752</ele></trkpt>
   <trkpt lat="42.886561" lon="19.199137"><ele>1755.25</ele></trkpt>
   <trkpt lat="42.886702" lon="19.19888"><ele>1759.5</ele></trkpt>
   <trkpt lat="42.886639" lon="19.198537"><ele>1760</ele></trkpt>
   <trkpt lat="42.886812" lon="19.198279"><ele>1764.75</ele></trkpt>
   <trkpt lat="42.887804" lon="19.197707"><ele>1782.5</ele></trkpt>
   <trkpt lat="42.888134" lon="19.197557"><ele>1785</ele></trkpt>
   <trkpt lat="42.888369" lon="19.197206"><ele>1785.75</ele></trkpt>
   <trkpt lat="42.889123" lon="19.196627"><ele>1780.25</ele></trkpt>
   <trkpt lat="42.889208" lon="19.196537"><ele>1775.5</ele></trkpt>
   <trkpt lat="42.889424" lon="19.196312"><ele>1775.5</ele></trkpt>
   <trkpt lat="42.889736" lon="19.196005"><ele>1770.75</ele></trkpt>
   <trkpt lat="42.890241" lon="19.194961"><ele>1770</ele></trkpt>
   <trkpt lat="42.891122" lon="19.193909"><ele>1756.25</ele></trkpt>
   <trkpt lat="42.891827" lon="19.193279"><ele>1750.25</ele></trkpt>
   <trkpt lat="42.892755" lon="19.192421"><ele>1739.75</ele></trkpt>
   <trkpt lat="42.892991" lon="19.1924"><ele>1736.5</ele></trkpt>
   <trkpt lat="42.893305" lon="19.192528"><ele>1731.25</ele></trkpt>
   <trkpt lat="42.89384" lon="19.192164"><ele>1729</ele></trkpt>
   <trkpt lat="42.894689" lon="19.19137"><ele>1728.75</ele></trkpt>
   <trkpt lat="42.895113" lon="19.190554"><ele>1729</ele></trkpt>
   <trkpt lat="42.89549" lon="19.189996"><ele>1730.75</ele></trkpt>
   <trkpt lat="42.895948" lon="19.189682"><ele>1732.25</ele></trkpt>
   <trkpt lat="42.89656" lon="19.18891"><ele>1735.25</ele></trkpt>
   <trkpt lat="42.897126" lon="19.188008"><ele>1735.25</ele></trkpt>
   <trkpt lat="42.89755" lon="19.187536"><ele>1733.75</ele></trkpt>
   <trkpt lat="42.89799" lon="19.187193"><ele>1733</ele></trkpt>
   <trkpt lat="42.898351" lon="19.187207"><ele>1738.25</ele></trkpt>
   <trkpt lat="42.899264" lon="19.187322"><ele>1733.75</ele></trkpt>
   <trkpt lat="42.899986" lon="19.187207"><ele>1731</ele></trkpt>
   <trkpt lat="42.900389" lon="19.186966"><ele>1728.25</ele></trkpt>
   <trkpt lat="42.900487" lon="19.186951"><ele>1728.25</ele></trkpt>
   <trkpt lat="42.900558" lon="19.1869"><ele>1728.25</ele></trkpt>
   <trkpt lat="42.900601" lon="19.186846"><ele>1728.25</ele></trkpt>
   <trkpt lat="42.900625" lon="19.186794"><ele>1728</ele></trkpt>
   <trkpt lat="42.900667" lon="19.186658"><ele>1727.75</ele></trkpt>
   <trkpt lat="42.900733" lon="19.186522"><ele>1727</ele></trkpt>
   <trkpt lat="42.900793" lon="19.186421"><ele>1726.75</ele></trkpt>
   <trkpt lat="42.900873" lon="19.186351"><ele>1727</ele></trkpt>
   <trkpt lat="42.900957" lon="19.186318"><ele>1726.5</ele></trkpt>
   <trkpt lat="42.901107" lon="19.18633"><ele>1726.25</ele></trkpt>
   <trkpt lat="42.901194" lon="19.186349"><ele>1726</ele></trkpt>
   <trkpt lat="42.901304" lon="19.186356"><ele>1725.25</ele></trkpt>
   <trkpt lat="42.901194" lon="19.186349"><ele>1726</ele></trkpt>
   <trkpt lat="42.901271" lon="19.186413"><ele>1726</ele></trkpt>
   <trkpt lat="42.901333" lon="19.186532"><ele>1725.75</ele></trkpt>
   <trkpt lat="42.901357" lon="19.186662"><ele>1725.75</ele></trkpt>
   <trkpt lat="42.901355" lon="19.186792"><ele>1725.75</ele></trkpt>
   <trkpt lat="42.90134" lon="19.186949"><ele>1725.75</ele></trkpt>
   <trkpt lat="42.90135" lon="19.187077"><ele>1725.5</ele></trkpt>
   <trkpt lat="42.901377" lon="19.187228"><ele>1725.25</ele></trkpt>
   <trkpt lat="42.901435" lon="19.187347"><ele>1724.75</ele></trkpt>
   <trkpt lat="42.901511" lon="19.187452"><ele>1724</ele></trkpt>
   <trkpt lat="42.901612" lon="19.187525"><ele>1723.25</ele></trkpt>
   <trkpt lat="42.90172" lon="19.187646"><ele>1722.75</ele></trkpt>
   <trkpt lat="42.901813" lon="19.187783"><ele>1722.5</ele></trkpt>
   <trkpt lat="42.901915" lon="19.187981"><ele>1721.75</ele></trkpt>
   <trkpt lat="42.902273" lon="19.188546"><ele>1718.5</ele></trkpt>
   <trkpt lat="42.902428" lon="19.188832"><ele>1716.75</ele></trkpt>
   <trkpt lat="42.902543" lon="19.188996"><ele>1715.75</ele></trkpt>
   <trkpt lat="42.90275" lon="19.189422"><ele>1720</ele></trkpt>
   <trkpt lat="42.90289" lon="19.189611"><ele>1723.25</ele></trkpt>
   <trkpt lat="42.903039" lon="19.189784"><ele>1726.5</ele></trkpt>
   <trkpt lat="42.903033" lon="19.189831"><ele>1728</ele></trkpt>
   <trkpt lat="42.903019" lon="19.18996"><ele>1728</ele></trkpt>
   <trkpt lat="42.90301" lon="19.190176"><ele>1728.75</ele></trkpt>
   <trkpt lat="42.903026" lon="19.190596"><ele>1729.5</ele></trkpt>
   <trkpt lat="42.903023" lon="19.190726"><ele>1729.5</ele></trkpt>
   <trkpt lat="42.902985" lon="19.190899"><ele>1729.5</ele></trkpt>
   <trkpt lat="42.902802" lon="19.191409"><ele>1726.75</ele></trkpt>
   <trkpt lat="42.902725" lon="19.191759"><ele>1724.75</ele></trkpt>
   <trkpt lat="42.902625" lon="19.19198"><ele>1723</ele></trkpt>
   <trkpt lat="42.90257" lon="19.19213"><ele>1721.75</ele></trkpt>
   <trkpt lat="42.902544" lon="19.192322"><ele>1720.5</ele></trkpt>
   <trkpt lat="42.902529" lon="19.192591"><ele>1719.75</ele></trkpt>
   <trkpt lat="42.902537" lon="19.192685"><ele>1720.25</ele></trkpt>
   <trkpt lat="42.902558" lon="19.192764"><ele>1720.75</ele></trkpt>
   <trkpt lat="42.90256" lon="19.192819"><ele>1721</ele></trkpt>
   <trkpt lat="42.902554" lon="19.192873"><ele>1721</ele></trkpt>
   <trkpt lat="42.902493" lon="19.193024"><ele>1720.75</ele></trkpt>
   <trkpt lat="42.902409" lon="19.193267"><ele>1723</ele></trkpt>
   <trkpt lat="42.902369" lon="19.193449"><ele>1725</ele></trkpt>
   <trkpt lat="42.902318" lon="19.193826"><ele>1729.75</ele></trkpt>
   <trkpt lat="42.9023" lon="19.194018"><ele>1732</ele></trkpt>
   <trkpt lat="42.902276" lon="19.19413"><ele>1733.25</ele></trkpt>
   <trkpt lat="42.902206" lon="19.194249"><ele>1735.5</ele></trkpt>
   <trkpt lat="42.902112" lon="19.19434"><ele>1737.25</ele></trkpt>
   <trkpt lat="42.902045" lon="19.194361"><ele>1737.75</ele></trkpt>
   <trkpt lat="42.90193" lon="19.194371"><ele>1738</ele></trkpt>
   <trkpt lat="42.901883" lon="19.194387"><ele>1738.25</ele></trkpt>
   <trkpt lat="42.901823" lon="19.19442"><ele>1738.5</ele></trkpt>
   <trkpt lat="42.901661" lon="19.194542"><ele>1740</ele></trkpt>
   <trkpt lat="42.901424" lon="19.19466"><ele>1740.5</ele></trkpt>
   <trkpt lat="42.901089" lon="19.194903"><ele>1739</ele></trkpt>
   <trkpt lat="42.900905" lon="19.195052"><ele>1737.75</ele></trkpt>
   <trkpt lat="42.900787" lon="19.195116"><ele>1738</ele></trkpt>
   <trkpt lat="42.900557" lon="19.195283"><ele>1738.75</ele></trkpt>
   <trkpt lat="42.900462" lon="19.195405"><ele>1739.75</ele></trkpt>
   <trkpt lat="42.900399" lon="19.195506"><ele>1740.75</ele></trkpt>
   <trkpt lat="42.900256" lon="19.19559"><ele>1739.75</ele></trkpt>
   <trkpt lat="42.900116" lon="19.195718"><ele>1739.5</ele></trkpt>
   <trkpt lat="42.900015" lon="19.195877"><ele>1740</ele></trkpt>
   <trkpt lat="42.899869" lon="19.196127"><ele>1744.5</ele></trkpt>
   <trkpt lat="42.899577" lon="19.196438"><ele>1749</ele></trkpt>
   <trkpt lat="42.899528" lon="19.196521"><ele>1749.75</ele></trkpt>
   <trkpt lat="42.899508" lon="19.196583"><ele>1750.25</ele></trkpt>
   <trkpt lat="42.899479" lon="19.196787"><ele>1752</ele></trkpt>
   <trkpt lat="42.89943" lon="19.197055"><ele>1753.5</ele></trkpt>
   <trkpt lat="42.899427" lon="19.197177"><ele>1754.25</ele></trkpt>
   <trkpt lat="42.899415" lon="19.197274"><ele>1754.75</ele></trkpt>
   <trkpt lat="42.899375" lon="19.197408"><ele>1755</ele></trkpt>
   <trkpt lat="42.899286" lon="19.197759"><ele>1755.25</ele></trkpt>
   <trkpt lat="42.899266" lon="19.197884"><ele>1755.5</ele></trkpt>
   <trkpt lat="42.899262" lon="19.198043"><ele>1756.75</ele></trkpt>
   <trkpt lat="42.89926" lon="19.198175"><ele>1756.75</ele></trkpt>
   <trkpt lat="42.899262" lon="19.198388"><ele>1757.75</ele></trkpt>
   <trkpt lat="42.899321" lon="19.198893"><ele>1760</ele></trkpt>
   <trkpt lat="42.899327" lon="19.199209"><ele>1760.75</ele></trkpt>
   <trkpt lat="42.899309" lon="19.199356"><ele>1760</ele></trkpt>
   <trkpt lat="42.899282" lon="19.199506"><ele>1758.75</ele></trkpt>
   <trkpt lat="42.899259" lon="19.199803"><ele>1757.25</ele></trkpt>
   <trkpt lat="42.899174" lon="19.200383"><ele>1755</ele></trkpt>
   <trkpt lat="42.899164" lon="19.200509"><ele>1755.25</ele></trkpt>
   <trkpt lat="42.899161" lon="19.200688"><ele>1755.5</ele></trkpt>
   <trkpt lat="42.899127" lon="19.20082"><ele>1756</ele></trkpt>
   <trkpt lat="42.899051" lon="19.201035"><ele>1757.75</ele></trkpt>
   <trkpt lat="42.898938" lon="19.201437"><ele>1760</ele></trkpt>
   <trkpt lat="42.898714" lon="19.20193"><ele>1760.5</ele></trkpt>
   <trkpt lat="42.898491" lon="19.202473"><ele>1758</ele></trkpt>
   <trkpt lat="42.898436" lon="19.202659"><ele>1757.75</ele></trkpt>
   <trkpt lat="42.898382" lon="19.202756"><ele>1757</ele></trkpt>
   <trkpt lat="42.898328" lon="19.202916"><ele>1756.25</ele></trkpt>
   <trkpt lat="42.898217" lon="19.203191"><ele>1757.5</ele></trkpt>
   <trkpt lat="42.898072" lon="19.203604"><ele>1760.5</ele></trkpt>
   <trkpt lat="42.898019" lon="19.203855"><ele>1762.75</ele></trkpt>
   <trkpt lat="42.897846" lon="19.204396"><ele>1768</ele></trkpt>
   <trkpt lat="42.897789" lon="19.204627"><ele>1770.75</ele></trkpt>
   <trkpt lat="42.897746" lon="19.204765"><ele>1772.25</ele></trkpt>
   <trkpt lat="42.897707" lon="19.204854"><ele>1772.5</ele></trkpt>
   <trkpt lat="42.897614" lon="19.205004"><ele>1772.25</ele></trkpt>
   <trkpt lat="42.897529" lon="19.205157"><ele>1771.5</ele></trkpt>
   <trkpt lat="42.897351" lon="19.205432"><ele>1773.5</ele></trkpt>
   <trkpt lat="42.897279" lon="19.205601"><ele>1774.75</ele></trkpt>
   <trkpt lat="42.897021" lon="19.206401"><ele>1782.25</ele></trkpt>
   <trkpt lat="42.89675" lon="19.207303"><ele>1786.5</ele></trkpt>
   <trkpt lat="42.896636" lon="19.207589"><ele>1787.5</ele></trkpt>
   <trkpt lat="42.896609" lon="19.207738"><ele>1790.25</ele></trkpt>
   <trkpt lat="42.896578" lon="19.208045"><ele>1795.75</ele></trkpt>
   <trkpt lat="42.896573" lon="19.208361"><ele>1801.25</ele></trkpt>
   <trkpt lat="42.896555" lon="19.208629"><ele>1803.75</ele></trkpt>
   <trkpt lat="42.896457" lon="19.208831"><ele>1805.5</ele></trkpt>
   <trkpt lat="42.896295" lon="19.209353"><ele>1806.75</ele></trkpt>
   <trkpt lat="42.896232" lon="19.209484"><ele>1805.75</ele></trkpt>
   <trkpt lat="42.895966" lon="19.209878"><ele>1800.75</ele></trkpt>
   <trkpt lat="42.895897" lon="19.20996"><ele>1799.25</ele></trkpt>
   <trkpt lat="42.895783" lon="19.210183"><ele>1799.5</ele></trkpt>
   <trkpt lat="42.895537" lon="19.210618"><ele>1803</ele></trkpt>
   <trkpt lat="42.895307" lon="19.210957"><ele>1803.75</ele></trkpt>
   <trkpt lat="42.895261" lon="19.211054"><ele>1803.5</ele></trkpt>
   <trkpt lat="42.895246" lon="19.211163"><ele>1803.25</ele></trkpt>
   <trkpt lat="42.895221" lon="19.211252"><ele>1803</ele></trkpt>
   <trkpt lat="42.894839" lon="19.211848"><ele>1797</ele></trkpt>
   <trkpt lat="42.894748" lon="19.212118"><ele>1794</ele></trkpt>
   <trkpt lat="42.894713" lon="19.212298"><ele>1792</ele></trkpt>
   <trkpt lat="42.894651" lon="19.212444"><ele>1790</ele></trkpt>
   <trkpt lat="42.894633" lon="19.212516"><ele>1789</ele></trkpt>
   <trkpt lat="42.894636" lon="19.212593"><ele>1788</ele></trkpt>
   <trkpt lat="42.894663" lon="19.212679"><ele>1787</ele></trkpt>
   <trkpt lat="42.894778" lon="19.212828"><ele>1785.5</ele></trkpt>
   <trkpt lat="42.894848" lon="19.212888"><ele>1785.25</ele></trkpt>
   <trkpt lat="42.895074" lon="19.213032"><ele>1785.5</ele></trkpt>
   <trkpt lat="42.895111" lon="19.213071"><ele>1785.5</ele></trkpt>
   <trkpt lat="42.89522" lon="19.213379"><ele>1781.5</ele></trkpt>
   <trkpt lat="42.895227" lon="19.213436"><ele>1780.25</ele></trkpt>
   <trkpt lat="42.895217" lon="19.213494"><ele>1778.75</ele></trkpt>
   <trkpt lat="42.895196" lon="19.213525"><ele>1777.75</ele></trkpt>
   <trkpt lat="42.895145" lon="19.21356"><ele>1776.5</ele></trkpt>
   <trkpt lat="42.894816" lon="19.213536"><ele>1775</ele></trkpt>
   <trkpt lat="42.894629" lon="19.213554"><ele>1774</ele></trkpt>
   <trkpt lat="42.894575" lon="19.213577"><ele>1773.5</ele></trkpt>
   <trkpt lat="42.894521" lon="19.21362"><ele>1772.75</ele></trkpt>
   <trkpt lat="42.894495" lon="19.213688"><ele>1771.75</ele></trkpt>
   <trkpt lat="42.894488" lon="19.213795"><ele>1770.5</ele></trkpt>
   <trkpt lat="42.894494" lon="19.213884"><ele>1769.5</ele></trkpt>
   <trkpt lat="42.894499" lon="19.213912"><ele>1768.5</ele></trkpt>
   <trkpt lat="42.894509" lon="19.21396"><ele>1768.5</ele></trkpt>
   <trkpt lat="42.894557" lon="19.21402"><ele>1767.5</ele></trkpt>
   <trkpt lat="42.894614" lon="19.214074"><ele>1766.5</ele></trkpt>
   <trkpt lat="42.894815" lon="19.214216"><ele>1764</ele></trkpt>
   <trkpt lat="42.894892" lon="19.214282"><ele>1763.5</ele></trkpt>
   <trkpt lat="42.895037" lon="19.21448"><ele>1761.75</ele></trkpt>
   <trkpt lat="42.895104" lon="19.21459"><ele>1761</ele></trkpt>
   <trkpt lat="42.895295" lon="19.215066"><ele>1757.5</ele></trkpt>
   <trkpt lat="42.895349" lon="19.215287"><ele>1757.25</ele></trkpt>
   <trkpt lat="42.89546" lon="19.215436"><ele>1756.25</ele></trkpt>
   <trkpt lat="42.895487" lon="19.215514"><ele>1756</ele></trkpt>
   <trkpt lat="42.895507" lon="19.215578"><ele>1756</ele></trkpt>
   <trkpt lat="42.895567" lon="19.216053"><ele>1756.25</ele></trkpt>
   <trkpt lat="42.89562" lon="19.216343"><ele>1756.5</ele></trkpt>
   <trkpt lat="42.895752" lon="19.216936"><ele>1755.75</ele></trkpt>
   <trkpt lat="42.895756" lon="19.217032"><ele>1755.5</ele></trkpt>
   <trkpt lat="42.895743" lon="19.217288"><ele>1755.5</ele></trkpt>
   <trkpt lat="42.895905" lon="19.217695"><ele>1754.5</ele></trkpt>
   <trkpt lat="42.895921" lon="19.217757"><ele>1754.25</ele></trkpt>
   <trkpt lat="42.895944" lon="19.217988"><ele>1754.25</ele></trkpt>
   <trkpt lat="42.895954" lon="19.218165"><ele>1754</ele></trkpt>
   <trkpt lat="42.895981" lon="19.218209"><ele>1753.75</ele></trkpt>
   <trkpt lat="42.896012" lon="19.218235"><ele>1753.5</ele></trkpt>
   <trkpt lat="42.896144" lon="19.218252"><ele>1752.75</ele></trkpt>
   <trkpt lat="42.896212" lon="19.21831"><ele>1752.25</ele></trkpt>
   <trkpt lat="42.896416" lon="19.218547"><ele>1751.25</ele></trkpt>
   <trkpt lat="42.896433" lon="19.218557"><ele>1751</ele></trkpt>
   <trkpt lat="42.896475" lon="19.21858"><ele>1751</ele></trkpt>
   <trkpt lat="42.896554" lon="19.21857"><ele>1750.25</ele></trkpt>
   <trkpt lat="42.896596" lon="19.218543"><ele>1750</ele></trkpt>
   <trkpt lat="42.896633" lon="19.21846"><ele>1749.5</ele></trkpt>
   <trkpt lat="42.896653" lon="19.218275"><ele>1749</ele></trkpt>
   <trkpt lat="42.896689" lon="19.218167"><ele>1748.75</ele></trkpt>
   <trkpt lat="42.896773" lon="19.218101"><ele>1747.5</ele></trkpt>
   <trkpt lat="42.897033" lon="19.218043"><ele>1743.25</ele></trkpt>
   <trkpt lat="42.897118" lon="19.218012"><ele>1741.75</ele></trkpt>
   <trkpt lat="42.897164" lon="19.217984"><ele>1741</ele></trkpt>
   <trkpt lat="42.897203" lon="19.217893"><ele>1740</ele></trkpt>
   <trkpt lat="42.897209" lon="19.217751"><ele>1739.25</ele></trkpt>
   <trkpt lat="42.897225" lon="19.217645"><ele>1738.5</ele></trkpt>
   <trkpt lat="42.89728" lon="19.217049"><ele>1735.25</ele></trkpt>
   <trkpt lat="42.897256" lon="19.216861"><ele>1735.25</ele></trkpt>
   <trkpt lat="42.897259" lon="19.216754"><ele>1734.75</ele></trkpt>
   <trkpt lat="42.897284" lon="19.216659"><ele>1734</ele></trkpt>
   <trkpt lat="42.89733" lon="19.216577"><ele>1733</ele></trkpt>
   <trkpt lat="42.897398" lon="19.216556"><ele>1731.5</ele></trkpt>
   <trkpt lat="42.897819" lon="19.216717"><ele>1730.75</ele></trkpt>
   <trkpt lat="42.897904" lon="19.216729"><ele>1731</ele></trkpt>
   <trkpt lat="42.898099" lon="19.216706"><ele>1731.75</ele></trkpt>
   <trkpt lat="42.898142" lon="19.216688"><ele>1732</ele></trkpt>
   <trkpt lat="42.89819" lon="19.21664"><ele>1732.25</ele></trkpt>
   <trkpt lat="42.898312" lon="19.216405"><ele>1732.25</ele></trkpt>
   <trkpt lat="42.89839" lon="19.216296"><ele>1731.75</ele></trkpt>
   <trkpt lat="42.898574" lon="19.21609"><ele>1732</ele></trkpt>
   <trkpt lat="42.898668" lon="19.21602"><ele>1733</ele></trkpt>
   <trkpt lat="42.898689" lon="19.216005"><ele>1733</ele></trkpt>
   <trkpt lat="42.898865" lon="19.215954"><ele>1734.5</ele></trkpt>
   <trkpt lat="42.898933" lon="19.215974"><ele>1734.5</ele></trkpt>
   <trkpt lat="42.899068" lon="19.216044"><ele>1734</ele></trkpt>
   <trkpt lat="42.899532" lon="19.216335"><ele>1727.25</ele></trkpt>
   <trkpt lat="42.899653" lon="19.216378"><ele>1725.25</ele></trkpt>
   <trkpt lat="42.899837" lon="19.216465"><ele>1721</ele></trkpt>
   <trkpt lat="42.899887" lon="19.216504"><ele>1719.25</ele></trkpt>
   <trkpt lat="42.900002" lon="19.216634"><ele>1712.5</ele></trkpt>
   <trkpt lat="42.900145" lon="19.216742"><ele>1711</ele></trkpt>
   <trkpt lat="42.900211" lon="19.216806"><ele>1710.25</ele></trkpt>
   <trkpt lat="42.900365" lon="19.216909"><ele>1709</ele></trkpt>
   <trkpt lat="42.900415" lon="19.216952"><ele>1708.25</ele></trkpt>
   <trkpt lat="42.900457" lon="19.217012"><ele>1707</ele></trkpt>
   <trkpt lat="42.900507" lon="19.217109"><ele>1704.75</ele></trkpt>
   <trkpt lat="42.900563" lon="19.217169"><ele>1703.5</ele></trkpt>
   <trkpt lat="42.900628" lon="19.217204"><ele>1702.75</ele></trkpt>
   <trkpt lat="42.900708" lon="19.217261"><ele>1701.25</ele></trkpt>
   <trkpt lat="42.900921" lon="19.217451"><ele>1696.25</ele></trkpt>
   <trkpt lat="42.901081" lon="19.21767"><ele>1693.25</ele></trkpt>
   <trkpt lat="42.901161" lon="19.217736"><ele>1692.5</ele></trkpt>
   <trkpt lat="42.901282" lon="19.217763"><ele>1692.5</ele></trkpt>
   <trkpt lat="42.901541" lon="19.217909"><ele>1690.75</ele></trkpt>
   <trkpt lat="42.901583" lon="19.21801"><ele>1688.75</ele></trkpt>
   <trkpt lat="42.901617" lon="19.218167"><ele>1685.5</ele></trkpt>
   <trkpt lat="42.901647" lon="19.218242"><ele>1684</ele></trkpt>
   <trkpt lat="42.901727" lon="19.218404"><ele>1681.75</ele></trkpt>
   <trkpt lat="42.901832" lon="19.218675"><ele>1680.5</ele></trkpt>
   <trkpt lat="42.90187" lon="19.218726"><ele>1680.25</ele></trkpt>
   <trkpt lat="42.902139" lon="19.219125"><ele>1675.5</ele></trkpt>
   <trkpt lat="42.902321" lon="19.219541"><ele>1670</ele></trkpt>
   <trkpt lat="42.902437" lon="19.219686"><ele>1667.75</ele></trkpt>
   <trkpt lat="42.902548" lon="19.219797"><ele>1666</ele></trkpt>
   <trkpt lat="42.902675" lon="19.219904"><ele>1664.25</ele></trkpt>
   <trkpt lat="42.903197" lon="19.220199"><ele>1658.5</ele></trkpt>
   <trkpt lat="42.903652" lon="19.220527"><ele>1651.75</ele></trkpt>
   <trkpt lat="42.903768" lon="19.220579"><ele>1650.25</ele></trkpt>
   <trkpt lat="42.903804" lon="19.220608"><ele>1649.75</ele></trkpt>
   <trkpt lat="42.903823" lon="19.220645"><ele>1649.25</ele></trkpt>
   <trkpt lat="42.903832" lon="19.220671"><ele>1649</ele></trkpt>
   <trkpt lat="42.903842" lon="19.220697"><ele>1649</ele></trkpt>
   <trkpt lat="42.903839" lon="19.220781"><ele>1648.5</ele></trkpt>
   <trkpt lat="42.903801" lon="19.221031"><ele>1648.25</ele></trkpt>
   <trkpt lat="42.903818" lon="19.221157"><ele>1648</ele></trkpt>
   <trkpt lat="42.903951" lon="19.221687"><ele>1646.5</ele></trkpt>
   <trkpt lat="42.903939" lon="19.221963"><ele>1648</ele></trkpt>
   <trkpt lat="42.904027" lon="19.2223"><ele>1650.25</ele></trkpt>
   <trkpt lat="42.904035" lon="19.222378"><ele>1650.75</ele></trkpt>
   <trkpt lat="42.904025" lon="19.222487"><ele>1651.25</ele></trkpt>
   <trkpt lat="42.90403" lon="19.222607"><ele>1652</ele></trkpt>
   <trkpt lat="42.904048" lon="19.222688"><ele>1652.5</ele></trkpt>
   <trkpt lat="42.904057" lon="19.222822"><ele>1653.25</ele></trkpt>
   <trkpt lat="42.904087" lon="19.222999"><ele>1654.5</ele></trkpt>
   <trkpt lat="42.904114" lon="19.2231"><ele>1655.25</ele></trkpt>
   <trkpt lat="42.90418" lon="19.22328"><ele>1656.25</ele></trkpt>
   <trkpt lat="42.904226" lon="19.223383"><ele>1656.5</ele></trkpt>
   <trkpt lat="42.904483" lon="19.22381"><ele>1657</ele></trkpt>
   <trkpt lat="42.904519" lon="19.223874"><ele>1657.25</ele></trkpt>
   <trkpt lat="42.904564" lon="19.223983"><ele>1657.75</ele></trkpt>
   <trkpt lat="42.904721" lon="19.224557"><ele>1659.5</ele></trkpt>
   <trkpt lat="42.90473" lon="19.224656"><ele>1659.75</ele></trkpt>
   <trkpt lat="42.904713" lon="19.224769"><ele>1660.25</ele></trkpt>
   <trkpt lat="42.904635" lon="19.225058"><ele>1660.75</ele></trkpt>
   <trkpt lat="42.904499" lon="19.225285"><ele>1659.5</ele></trkpt>
   <trkpt lat="42.90446" lon="19.225363"><ele>1659.25</ele></trkpt>
   <trkpt lat="42.904449" lon="19.225456"><ele>1658.5</ele></trkpt>
   <trkpt lat="42.904462" lon="19.225661"><ele>1657.25</ele></trkpt>
   <trkpt lat="42.904428" lon="19.225803"><ele>1656.5</ele></trkpt>
   <trkpt lat="42.904392" lon="19.225867"><ele>1656.25</ele></trkpt>
   <trkpt lat="42.904116" lon="19.226224"><ele>1654.75</ele></trkpt>
   <trkpt lat="42.903799" lon="19.226502"><ele>1655.75</ele></trkpt>
   <trkpt lat="42.90374" lon="19.226583"><ele>1655.75</ele></trkpt>
   <trkpt lat="42.903724" lon="19.226682"><ele>1655.25</ele></trkpt>
   <trkpt lat="42.903727" lon="19.226799"><ele>1655</ele></trkpt>
   <trkpt lat="42.903774" lon="19.22702"><ele>1654</ele></trkpt>
   <trkpt lat="42.903777" lon="19.22709"><ele>1654</ele></trkpt>
   <trkpt lat="42.903767" lon="19.22715"><ele>1654</ele></trkpt>
   <trkpt lat="42.903737" lon="19.227227"><ele>1654.5</ele></trkpt>
   <trkpt lat="42.903697" lon="19.227268"><ele>1655.25</ele></trkpt>
   <trkpt lat="42.903515" lon="19.22742"><ele>1659</ele></trkpt>
   <trkpt lat="42.90344" lon="19.227497"><ele>1660.5</ele></trkpt>
   <trkpt lat="42.903426" lon="19.227538"><ele>1661</ele></trkpt>
   <trkpt lat="42.903421" lon="19.227603"><ele>1661.5</ele></trkpt>
   <trkpt lat="42.90342" lon="19.227623"><ele>1661.5</ele></trkpt>
   <trkpt lat="42.903484" lon="19.227821"><ele>1661.25</ele></trkpt>
   <trkpt lat="42.903501" lon="19.227982"><ele>1661.5</ele></trkpt>
   <trkpt lat="42.903606" lon="19.228605"><ele>1661.25</ele></trkpt>
   <trkpt lat="42.903622" lon="19.228658"><ele>1661</ele></trkpt>
   <trkpt lat="42.903671" lon="19.228735"><ele>1660.25</ele></trkpt>
   <trkpt lat="42.903738" lon="19.228821"><ele>1659.5</ele></trkpt>
   <trkpt lat="42.903802" lon="19.228867"><ele>1658.75</ele></trkpt>
   <trkpt lat="42.903896" lon="19.228962"><ele>1658</ele></trkpt>
   <trkpt lat="42.904143" lon="19.229315"><ele>1657.25</ele></trkpt>
   <trkpt lat="42.904347" lon="19.229638"><ele>1655.75</ele></trkpt>
   <trkpt lat="42.904432" lon="19.229715"><ele>1655.25</ele></trkpt>
   <trkpt lat="42.904482" lon="19.229785"><ele>1655</ele></trkpt>
   <trkpt lat="42.904531" lon="19.229865"><ele>1654.75</ele></trkpt>
   <trkpt lat="42.904547" lon="19.229944"><ele>1655</ele></trkpt>
   <trkpt lat="42.904547" lon="19.229965"><ele>1654.5</ele></trkpt>
   <trkpt lat="42.904549" lon="19.230109"><ele>1654.5</ele></trkpt>
   <trkpt lat="42.904523" lon="19.230222"><ele>1654</ele></trkpt>
   <trkpt lat="42.904467" lon="19.230325"><ele>1654</ele></trkpt>
   <trkpt lat="42.904372" lon="19.23047"><ele>1653.75</ele></trkpt>
   <trkpt lat="42.90431" lon="19.230606"><ele>1653.25</ele></trkpt>
   <trkpt lat="42.904197" lon="19.230777"><ele>1653</ele></trkpt>
   <trkpt lat="42.90417" lon="19.230823"><ele>1653</ele></trkpt>
   <trkpt lat="42.904153" lon="19.230868"><ele>1652.5</ele></trkpt>
   <trkpt lat="42.904151" lon="19.230922"><ele>1652</ele></trkpt>
   <trkpt lat="42.904156" lon="19.230963"><ele>1651.5</ele></trkpt>
   <trkpt lat="42.904189" lon="19.230981"><ele>1651</ele></trkpt>
   <trkpt lat="42.904304" lon="19.230996"><ele>1650.25</ele></trkpt>
   <trkpt lat="42.904419" lon="19.231027"><ele>1649.25</ele></trkpt>
   <trkpt lat="42.904439" lon="19.231054"><ele>1648.75</ele></trkpt>
   <trkpt lat="42.904438" lon="19.231146"><ele>1647.75</ele></trkpt>
   <trkpt lat="42.904402" lon="19.231192"><ele>1647.5</ele></trkpt>
   <trkpt lat="42.904342" lon="19.231229"><ele>1647.5</ele></trkpt>
   <trkpt lat="42.904254" lon="19.231305"><ele>1646.75</ele></trkpt>
   <trkpt lat="42.904206" lon="19.231394"><ele>1646</ele></trkpt>
   <trkpt lat="42.904172" lon="19.231508"><ele>1644.75</ele></trkpt>
   <trkpt lat="42.90416" lon="19.231609"><ele>1643.5</ele></trkpt>
   <trkpt lat="42.904136" lon="19.231673"><ele>1643</ele></trkpt>
   <trkpt lat="42.904101" lon="19.23173"><ele>1642.5</ele></trkpt>
   <trkpt lat="42.90403" lon="19.231767"><ele>1642.25</ele></trkpt>
   <trkpt lat="42.90394" lon="19.231774"><ele>1642.75</ele></trkpt>
   <trkpt lat="42.903717" lon="19.231734"><ele>1644.25</ele></trkpt>
   <trkpt lat="42.90364" lon="19.231763"><ele>1644.25</ele></trkpt>
   <trkpt lat="42.903579" lon="19.231821"><ele>1643.75</ele></trkpt>
   <trkpt lat="42.903541" lon="19.231912"><ele>1643</ele></trkpt>
   <trkpt lat="42.903531" lon="19.232019"><ele>1641.75</ele></trkpt>
   <trkpt lat="42.903548" lon="19.232106"><ele>1640.5</ele></trkpt>
   <trkpt lat="42.903606" lon="19.232269"><ele>1638.25</ele></trkpt>
   <trkpt lat="42.903605" lon="19.232467"><ele>1636</ele></trkpt>
   <trkpt lat="42.903627" lon="19.232593"><ele>1634.5</ele></trkpt>
   <trkpt lat="42.903649" lon="19.232661"><ele>1634</ele></trkpt>
   <trkpt lat="42.903654" lon="19.232915"><ele>1631.5</ele></trkpt>
   <trkpt lat="42.903635" lon="19.233036"><ele>1630.5</ele></trkpt>
   <trkpt lat="42.90359" lon="19.233179"><ele>1629</ele></trkpt>
   <trkpt lat="42.903566" lon="19.233292"><ele>1627.75</ele></trkpt>
   <trkpt lat="42.903583" lon="19.23343"><ele>1626.75</ele></trkpt>
   <trkpt lat="42.90367" lon="19.233705"><ele>1625.25</ele></trkpt>
   <trkpt lat="42.903671" lon="19.233767"><ele>1625</ele></trkpt>
   <trkpt lat="42.903662" lon="19.233857"><ele>1624.25</ele></trkpt>
   <trkpt lat="42.90364" lon="19.233979"><ele>1623.25</ele></trkpt>
   <trkpt lat="42.903616" lon="19.234289"><ele>1621</ele></trkpt>
   <trkpt lat="42.903566" lon="19.234516"><ele>1619.5</ele></trkpt>
   <trkpt lat="42.903519" lon="19.234648"><ele>1618.75</ele></trkpt>
   <trkpt lat="42.903484" lon="19.234881"><ele>1617.75</ele></trkpt>
   <trkpt lat="42.903468" lon="19.235087"><ele>1616.75</ele></trkpt>
   <trkpt lat="42.903444" lon="19.235229"><ele>1616.25</ele></trkpt>
   <trkpt lat="42.903423" lon="19.235341"><ele>1616</ele></trkpt>
   <trkpt lat="42.903362" lon="19.235541"><ele>1615.5</ele></trkpt>
   <trkpt lat="42.903329" lon="19.235766"><ele>1615</ele></trkpt>
   <trkpt lat="42.903318" lon="19.235904"><ele>1614.75</ele></trkpt>
   <trkpt lat="42.903282" lon="19.23605"><ele>1614.5</ele></trkpt>
   <trkpt lat="42.903222" lon="19.23618"><ele>1614.75</ele></trkpt>
   <trkpt lat="42.902742" lon="19.237356"><ele>1610.25</ele></trkpt>
   <trkpt lat="42.902705" lon="19.23741"><ele>1610</ele></trkpt>
   <trkpt lat="42.902487" lon="19.237598"><ele>1611</ele></trkpt>
   <trkpt lat="42.902465" lon="19.237645"><ele>1610.75</ele></trkpt>
   <trkpt lat="42.902448" lon="19.237707"><ele>1610.25</ele></trkpt>
   <trkpt lat="42.902482" lon="19.237808"><ele>1608.75</ele></trkpt>
   <trkpt lat="42.902502" lon="19.237897"><ele>1607.5</ele></trkpt>
   <trkpt lat="42.902507" lon="19.237998"><ele>1606.5</ele></trkpt>
   <trkpt lat="42.902526" lon="19.238095"><ele>1605</ele></trkpt>
   <trkpt lat="42.902564" lon="19.238217"><ele>1603</ele></trkpt>
   <trkpt lat="42.902621" lon="19.23831"><ele>1601</ele></trkpt>
   <trkpt lat="42.902692" lon="19.238365"><ele>1599.25</ele></trkpt>
   <trkpt lat="42.902824" lon="19.238433"><ele>1596</ele></trkpt>
   <trkpt lat="42.902863" lon="19.238497"><ele>1594.5</ele></trkpt>
   <trkpt lat="42.902867" lon="19.238557"><ele>1593.5</ele></trkpt>
   <trkpt lat="42.90286" lon="19.238629"><ele>1592.75</ele></trkpt>
   <trkpt lat="42.902823" lon="19.238753"><ele>1591.75</ele></trkpt>
   <trkpt lat="42.902777" lon="19.238861"><ele>1591.25</ele></trkpt>
   <trkpt lat="42.902707" lon="19.239012"><ele>1590.75</ele></trkpt>
   <trkpt lat="42.902617" lon="19.239133"><ele>1591.5</ele></trkpt>
   <trkpt lat="42.902544" lon="19.239276"><ele>1591</ele></trkpt>
   <trkpt lat="42.902494" lon="19.239581"><ele>1586.5</ele></trkpt>
   <trkpt lat="42.90249" lon="19.2397"><ele>1584.5</ele></trkpt>
   <trkpt lat="42.902544" lon="19.239574"><ele>1585.75</ele></trkpt>
   <trkpt lat="42.902585" lon="19.239514"><ele>1586.25</ele></trkpt>
   <trkpt lat="42.902544" lon="19.239574"><ele>1585.75</ele></trkpt>
   <trkpt lat="42.90249" lon="19.2397"><ele>1584.5</ele></trkpt>
   <trkpt lat="42.902454" lon="19.239778"><ele>1584.25</ele></trkpt>
   <trkpt lat="42.90242" lon="19.239864"><ele>1583.75</ele></trkpt>
   <trkpt lat="42.90227" lon="19.239996"><ele>1585.75</ele></trkpt>
   <trkpt lat="42.902205" lon="19.240094"><ele>1587</ele></trkpt>
   <trkpt lat="42.902191" lon="19.240254"><ele>1586</ele></trkpt>
   <trkpt lat="42.902165" lon="19.240405"><ele>1585.5</ele></trkpt>
   <trkpt lat="42.902109" lon="19.240569"><ele>1585.5</ele></trkpt>
   <trkpt lat="42.902067" lon="19.240723"><ele>1585.25</ele></trkpt>
   <trkpt lat="42.902022" lon="19.240789"><ele>1585.75</ele></trkpt>
   <trkpt lat="42.901972" lon="19.240893"><ele>1586.5</ele></trkpt>
   <trkpt lat="42.901968" lon="19.241017"><ele>1586.25</ele></trkpt>
   <trkpt lat="42.901992" lon="19.241162"><ele>1585.5</ele></trkpt>
   <trkpt lat="42.902069" lon="19.241297"><ele>1584</ele></trkpt>
   <trkpt lat="42.902139" lon="19.241574"><ele>1583.25</ele></trkpt>
   <trkpt lat="42.902181" lon="19.241815"><ele>1584.25</ele></trkpt>
   <trkpt lat="42.902191" lon="19.242013"><ele>1585.75</ele></trkpt>
   <trkpt lat="42.902163" lon="19.242279"><ele>1587.75</ele></trkpt>
   <trkpt lat="42.902147" lon="19.242578"><ele>1590.25</ele></trkpt>
   <trkpt lat="42.902121" lon="19.242756"><ele>1592.5</ele></trkpt>
   <trkpt lat="42.902083" lon="19.24294"><ele>1594.75</ele></trkpt>
   <trkpt lat="42.902035" lon="19.243097"><ele>1596.5</ele></trkpt>
   <trkpt lat="42.902029" lon="19.243196"><ele>1597.75</ele></trkpt>
   <trkpt lat="42.902075" lon="19.243242"><ele>1598.25</ele></trkpt>
   <trkpt lat="42.902521" lon="19.243322"><ele>1599.75</ele></trkpt>
   <trkpt lat="42.902602" lon="19.24338"><ele>1601.25</ele></trkpt>
   <trkpt lat="42.902593" lon="19.243481"><ele>1602.5</ele></trkpt>
   <trkpt lat="42.902549" lon="19.24364"><ele>1604.25</ele></trkpt>
   <trkpt lat="42.902493" lon="19.243882"><ele>1607</ele></trkpt>
   <trkpt lat="42.902409" lon="19.244384"><ele>1613</ele></trkpt>
   <trkpt lat="42.902364" lon="19.244568"><ele>1615</ele></trkpt>
   <trkpt lat="42.90227" lon="19.244733"><ele>1616.75</ele></trkpt>
   <trkpt lat="42.902203" lon="19.244982"><ele>1619.25</ele></trkpt>
   <trkpt lat="42.902019" lon="19.245779"><ele>1623.5</ele></trkpt>
   <trkpt lat="42.901948" lon="19.246151"><ele>1622.5</ele></trkpt>
   <trkpt lat="42.90191" lon="19.246448"><ele>1621.75</ele></trkpt>
   <trkpt lat="42.901904" lon="19.246725"><ele>1621</ele></trkpt>
   <trkpt lat="42.901926" lon="19.246895"><ele>1620.25</ele></trkpt>
   <trkpt lat="42.902031" lon="19.247326"><ele>1619.25</ele></trkpt>
   <trkpt lat="42.902119" lon="19.247546"><ele>1619</ele></trkpt>
   <trkpt lat="42.902234" lon="19.247782"><ele>1618.75</ele></trkpt>
   <trkpt lat="42.902374" lon="19.248048"><ele>1618.5</ele></trkpt>
   <trkpt lat="42.902513" lon="19.248438"><ele>1618</ele></trkpt>
   <trkpt lat="42.902591" lon="19.248797"><ele>1618.5</ele></trkpt>
   <trkpt lat="42.902728" lon="19.249903"><ele>1618.75</ele></trkpt>
   <trkpt lat="42.902763" lon="19.250346"><ele>1621.5</ele></trkpt>
   <trkpt lat="42.902919" lon="19.250781"><ele>1625</ele></trkpt>
   <trkpt lat="42.90313" lon="19.251245"><ele>1628.5</ele></trkpt>
   <trkpt lat="42.903176" lon="19.251385"><ele>1629.25</ele></trkpt>
   <trkpt lat="42.903205" lon="19.251618"><ele>1630.5</ele></trkpt>
   <trkpt lat="42.903223" lon="19.251821"><ele>1630</ele></trkpt>
   <trkpt lat="42.903279" lon="19.252063"><ele>1628</ele></trkpt>
   <trkpt lat="42.903323" lon="19.252219"><ele>1626.25</ele></trkpt>
   <trkpt lat="42.903359" lon="19.252395"><ele>1624.5</ele></trkpt>
   <trkpt lat="42.90342" lon="19.252576"><ele>1621.5</ele></trkpt>
   <trkpt lat="42.903516" lon="19.252697"><ele>1618.25</ele></trkpt>
   <trkpt lat="42.903613" lon="19.252702"><ele>1616.75</ele></trkpt>
   <trkpt lat="42.903681" lon="19.252634"><ele>1617</ele></trkpt>
   <trkpt lat="42.903896" lon="19.252477"><ele>1617.5</ele></trkpt>
   <trkpt lat="42.90396" lon="19.252455"><ele>1617.25</ele></trkpt>
   <trkpt lat="42.904079" lon="19.252513"><ele>1614.75</ele></trkpt>
   <trkpt lat="42.904174" lon="19.252527"><ele>1613</ele></trkpt>
   <trkpt lat="42.904318" lon="19.252505"><ele>1609.5</ele></trkpt>
   <trkpt lat="42.904342" lon="19.252551"><ele>1607.75</ele></trkpt>
   <trkpt lat="42.904346" lon="19.252601"><ele>1606.25</ele></trkpt>
   <trkpt lat="42.904264" lon="19.252694"><ele>1606.25</ele></trkpt>
   <trkpt lat="42.904123" lon="19.252801"><ele>1607</ele></trkpt>
   <trkpt lat="42.903983" lon="19.252867"><ele>1607.5</ele></trkpt>
   <trkpt lat="42.90388" lon="19.252991"><ele>1606.5</ele></trkpt>
   <trkpt lat="42.90381" lon="19.253153"><ele>1604.5</ele></trkpt>
   <trkpt lat="42.903741" lon="19.253273"><ele>1603.25</ele></trkpt>
   <trkpt lat="42.903601" lon="19.25371"><ele>1599</ele></trkpt>
   <trkpt lat="42.903568" lon="19.253874"><ele>1597</ele></trkpt>
   <trkpt lat="42.903448" lon="19.25422"><ele>1594</ele></trkpt>
   <trkpt lat="42.903398" lon="19.254404"><ele>1593</ele></trkpt>
   <trkpt lat="42.903371" lon="19.254626"><ele>1591.25</ele></trkpt>
   <trkpt lat="42.903203" lon="19.255129"><ele>1589</ele></trkpt>
   <trkpt lat="42.90312" lon="19.2554"><ele>1587.25</ele></trkpt>
   <trkpt lat="42.90308" lon="19.255669"><ele>1584.75</ele></trkpt>
   <trkpt lat="42.903108" lon="19.255919"><ele>1582.5</ele></trkpt>
   <trkpt lat="42.903253" lon="19.256139"><ele>1582.5</ele></trkpt>
   <trkpt lat="42.903302" lon="19.256279"><ele>1582.75</ele></trkpt>
   <trkpt lat="42.903336" lon="19.256537"><ele>1583.5</ele></trkpt>
   <trkpt lat="42.903361" lon="19.256652"><ele>1584</ele></trkpt>
   <trkpt lat="42.903419" lon="19.256753"><ele>1584.25</ele></trkpt>
   <trkpt lat="42.903621" lon="19.256939"><ele>1586.25</ele></trkpt>
   <trkpt lat="42.903705" lon="19.257034"><ele>1587.5</ele></trkpt>
   <trkpt lat="42.903764" lon="19.257209"><ele>1589</ele></trkpt>
   <trkpt lat="42.903765" lon="19.257471"><ele>1590</ele></trkpt>
   <trkpt lat="42.903788" lon="19.257572"><ele>1590.75</ele></trkpt>
   <trkpt lat="42.903981" lon="19.258193"><ele>1595</ele></trkpt>
   <trkpt lat="42.904034" lon="19.258278"><ele>1596.5</ele></trkpt>
   <trkpt lat="42.904102" lon="19.258315"><ele>1598.25</ele></trkpt>
   <trkpt lat="42.904176" lon="19.258317"><ele>1600</ele></trkpt>
   <trkpt lat="42.904282" lon="19.258299"><ele>1600.75</ele></trkpt>
   <trkpt lat="42.904361" lon="19.258301"><ele>1601.25</ele></trkpt>
   <trkpt lat="42.904446" lon="19.258336"><ele>1601.75</ele></trkpt>
   <trkpt lat="42.90452" lon="19.258404"><ele>1601.75</ele></trkpt>
   <trkpt lat="42.904729" lon="19.258753"><ele>1600.5</ele></trkpt>
   <trkpt lat="42.904878" lon="19.258955"><ele>1600.75</ele></trkpt>
   <trkpt lat="42.904906" lon="19.259056"><ele>1600.25</ele></trkpt>
   <trkpt lat="42.904901" lon="19.25914"><ele>1599.75</ele></trkpt>
   <trkpt lat="42.904915" lon="19.259386"><ele>1597.75</ele></trkpt>
   <trkpt lat="42.904939" lon="19.259654"><ele>1595.75</ele></trkpt>
   <trkpt lat="42.90498" lon="19.259935"><ele>1594</ele></trkpt>
   <trkpt lat="42.905029" lon="19.260182"><ele>1592.25</ele></trkpt>
   <trkpt lat="42.905029" lon="19.260549"><ele>1588.25</ele></trkpt>
   <trkpt lat="42.905053" lon="19.26062"><ele>1587.75</ele></trkpt>
   <trkpt lat="42.90512" lon="19.260694"><ele>1587.5</ele></trkpt>
   <trkpt lat="42.905287" lon="19.260779"><ele>1588</ele></trkpt>
   <trkpt lat="42.905334" lon="19.260845"><ele>1587.5</ele></trkpt>
   <trkpt lat="42.905375" lon="19.260962"><ele>1586.25</ele></trkpt>
   <trkpt lat="42.90542" lon="19.261045"><ele>1585.25</ele></trkpt>
   <trkpt lat="42.905465" lon="19.261076"><ele>1585.5</ele></trkpt>
   <trkpt lat="42.905638" lon="19.261111"><ele>1586.75</ele></trkpt>
   <trkpt lat="42.90569" lon="19.261162"><ele>1586.75</ele></trkpt>
   <trkpt lat="42.905711" lon="19.261243"><ele>1586</ele></trkpt>
   <trkpt lat="42.905697" lon="19.261354"><ele>1584.5</ele></trkpt>
   <trkpt lat="42.90565" lon="19.261482"><ele>1582.25</ele></trkpt>
   <trkpt lat="42.905559" lon="19.261666"><ele>1578.5</ele></trkpt>
   <trkpt lat="42.905549" lon="19.26175"><ele>1576</ele></trkpt>
   <trkpt lat="42.90563" lon="19.261979"><ele>1570.5</ele></trkpt>
   <trkpt lat="42.905782" lon="19.262235"><ele>1564.5</ele></trkpt>
   <trkpt lat="42.905937" lon="19.262462"><ele>1560</ele></trkpt>
   <trkpt lat="42.906375" lon="19.262928"><ele>1552.25</ele></trkpt>
   <trkpt lat="42.906565" lon="19.263145"><ele>1549.25</ele></trkpt>
   <trkpt lat="42.906686" lon="19.263335"><ele>1546</ele></trkpt>
   <trkpt lat="42.90671" lon="19.263459"><ele>1544.75</ele></trkpt>
   <trkpt lat="42.906682" lon="19.263828"><ele>1540.5</ele></trkpt>
   <trkpt lat="42.906679" lon="19.263976"><ele>1539</ele></trkpt>
   <trkpt lat="42.906709" lon="19.264146"><ele>1537</ele></trkpt>
   <trkpt lat="42.906709" lon="19.264247"><ele>1536.75</ele></trkpt>
   <trkpt lat="42.90668" lon="19.264785"><ele>1536</ele></trkpt>
   <trkpt lat="42.906633" lon="19.264306"><ele>1535.75</ele></trkpt>
   <trkpt lat="42.906549" lon="19.263568"><ele>1540.25</ele></trkpt>
   <trkpt lat="42.906518" lon="19.263417"><ele>1541</ele></trkpt>
   <trkpt lat="42.906505" lon="19.263388"><ele>1541.25</ele></trkpt>
  </trkseg>
 </trk>
</gpx>